[{"OBJECT_NAME":"GEESAT-3 10","OBJECT_ID":"2024-159K","EPOCH":"2026-03-09T21:50:43.608480","MEAN_MOTION":14.83818369,"ECCENTRICITY":0.00038048,"INCLINATION":49.9979,"RA_OF_ASC_NODE":183.5707,"ARG_OF_PERICENTER":94.3081,"MEAN_ANOMALY":265.8292,"EPHEMERIS_TYPE":0,"CLASSIFICATION_TYPE":"U","NORAD_CAT_ID":61020,"ELEMENT_SET_NO":999,"REV_AT_EPOCH":8176,"BSTAR":0.00041621314,"MEAN_MOTION_DOT":3.261e-5,"MEAN_MOTION_DDOT":0},{"OBJECT_NAME":"PSLV R\/B","OBJECT_ID":"2012-047C","EPOCH":"2026-03-09T21:55:40.189440","MEAN_MOTION":14.8317446,"ECCENTRICITY":0.00047268,"INCLINATION":98.3159,"RA_OF_ASC_NODE":269.5137,"ARG_OF_PERICENTER":333.0926,"MEAN_ANOMALY":27.0041,"EPHEMERIS_TYPE":0,"CLASSIFICATION_TYPE":"U","NORAD_CAT_ID":38757,"ELEMENT_SET_NO":999,"REV_AT_EPOCH":72816,"BSTAR":0.00015491234,"MEAN_MOTION_DOT":1.206e-5,"MEAN_MOTION_DDOT":0}]
